137P/Shoemaker-Levy,e,4.8534,233.0501,141.0177,4.520541,0.1025459,0.57335833,76.3380,12/27.0/2020,2000,g 11.0,4.0
# From MPEC 2016-U66
138P/Shoemaker-Levy,e,10.0910,309.3320,95.5592,3.622727,0.1429390,0.53035097,86.3659,12/27.0/2020,2000,g 15.0,6.0
# From MPEC 2020-HN5
139P/Vaisala-Oterma,e,2.3336,242.1857,165.7510,4.523697,0.1024386,0.24653538,114.0695,12/27.0/2020,2000,g  9.5,4.0
# From MPEC 2015-E14
140P/Bowell-Skiff,e,3.8305,343.2974,172.8992,6.432805,0.0604093,0.69130899,119.0007,12/27.0/2020,2000,g 11.5,6.0
# From MPC105242
141P/Machholz,e,13.9453,241.8487,153.5442,3.055194,0.1845635,0.73555222,2.1391,12/27.0/2020,2000,g 12.0,12.0
# From MPC 95735
141P-H/Machholz,e,12.8431,246.0900,149.4500,3.008012,0.1889230,0.74682218,359.9270,08/24.0/2015,2000,g 18.5,4.0
# From MPC 71683
142P/Ge-Wang,e,12.2454,175.9457,173.9607,5.008392,0.0879340,0.49826447,347.9826,12/27.0/2020,2000,g  9.0,4.0
# From MPEC 2020-W26
143P/Kowal-Mrkos,e,4.6972,245.2510,320.4446,4.284310,0.1111431,0.41063207,107.3996,12/27.0/2020,2000,g 13.5,2.0
# From MPC104795
144P/Kushida,e,3.9546,243.5190,216.1304,3.815168,0.1322615,0.63726688,211.2685,12/27.0/2020,2000,g  8.5,8.0
# From MPC108598
145P/Shoemaker-Levy,e,11.2693,26.7880,10.2514,4.139369,0.1170315,0.54115769,141.9562,12/27.0/2020,2000,g 13.5,4.0
# From MPC100284
146P/Shoemaker-LINEAR,e,23.0888,53.4107,316.9252,4.032885,0.1216971,0.64677958,199.6267,12/27.0/2020,2000,g 15.0,4.0
# From MPC 75720
147P/Kushida-Muramatsu,e,2.3514,93.2369,350.7220,3.969347,0.1246308,0.23620556,226.0872,12/27.0/2020,2000,g 14.0,4.0
# From MPEC 2014-R70
148P/Anderson-LINEAR,e,3.6643,89.4072,7.4297,3.634648,0.1422363,0.54980232,284.1618,12/27.0/2020,2000,g  9.0,4.0
# From MPC 75720
149P/Mueller,e,29.9606,145.0009,44.3916,4.335465,0.1091819,0.39216333,73.8847,12/27.0/2020,2000,g  8.0,8.0
# From MPC 75720
150P/LONEOS,e,18.5070,272.3985,245.5584,3.879882,0.1289663,0.54673355,208.6483,12/27.0/2020,2000,g 13.5,4.0
# From MPEC 2015-Q71
151P/Helin,e,4.7278,143.1529,216.0469,5.764154,0.0712198,0.57323445,135.6841,12/27.0/2020,2000,g 10.0,6.0
# From MPC 79346
152P/Helin-Lawrence,e,9.8796,91.8647,163.8652,4.479604,0.1039548,0.30900656,320.2554,12/27.0/2020,2000,g 11.5,4.0
# From MPC 46101
153P/Ikeya-Zhang,e,27.7585,93.0957,35.1618,50.76421,0.0027250,0.98963114,0.0000,03/08.2384/2002,2000,g  9.0,4.0
# From MPC 87068
154P/Brewington,e,17.6316,343.0272,47.8393,4.803364,0.0936237,0.67538815,241.5268,12/27.0/2020,2000,g  2.5,12.0
# From MPEC 2020-SI8
155P/Shoemaker,e,6.3960,97.1958,14.6417,6.582078,0.0583660,0.72629455,23.8161,12/27.0/2020,2000,g 10.0,4.8
# From MPEC 2020-W26
156P/Russell-LINEAR,e,17.2628,35.3689,0.4292,3.460175,0.1531288,0.61475334,5.9912,12/27.0/2020,2000,g 15.5,2.0
# From MPC104795
157P/Tritton,e,12.5905,287.8748,154.9435,3.546018,0.1476022,0.56146149,268.5844,12/27.0/2020,2000,g 10.0,4.0
# From MPEC 2016-K18
158P/Kowal-LINEAR,e,7.9884,135.5793,176.5512,4.918910,0.0903443,0.02456984,343.5539,12/27.0/2020,2000,g  9.0,4.0
# From MPEC 2020-L06
159P/LONEOS,e,23.4628,54.9938,4.5981,5.855425,0.0695611,0.38157483,66.0875,12/27.0/2020,2000,g 10.0,4.0
# From MPEC 2019-TG9
160P/LINEAR,e,15.6161,333.3620,12.6842,3.773418,0.1344627,0.52625449,52.5276,12/27.0/2020,2000,g 15.5,2.0
# From MPC 75721
161P/Hartley-IRAS,e,95.7653,1.5082,46.9328,7.726176,0.0458941,0.83463788,260.7308,12/27.0/2020,2000,g  8.5,6.0
# From MPEC 2020-W26
162P/Siding Spring,e,27.5549,30.9111,357.1345,3.090494,0.1814104,0.58287080,3.4794,12/27.0/2020,2000,g 12.0,4.0
# From MPEC 2020-HN5
163P/NEAT,e,12.7080,102.0894,349.6389,3.768627,0.1347192,0.45182643,68.6953,12/27.0/2020,2000,g 14.5,4.0
# From MPC106349
164P/Christensen,e,16.2545,88.2986,325.8413,3.657424,0.1409098,0.53983963,132.5541,12/27.0/2020,2000,g 11.0,4.0
# From MPC 75721
165P/LINEAR,e,15.8975,0.8012,126.1187,17.89133,0.0130239,0.61478238,98.0671,12/27.0/2020,2000,g 11.5,2.0
# From MPC 75722
166P/NEAT,e,15.3653,64.4729,321.4437,13.82505,0.0191736,0.38280495,130.4855,12/27.0/2020,2000,g  5.5,4.0
# From MPC 75722
167P/CINEOS,e,19.1211,295.6547,344.3555,16.20158,0.0151136,0.27260171,108.3850,12/27.0/2020,2000,g  9.5,2.0
# From MPC102101
168P/Hergenrother,e,21.6165,355.4564,14.9955,3.582191,0.1453721,0.62079512,74.1067,12/27.0/2020,2000,g 15.5,4.0
# From MPEC 2020-L06
169P/NEAT,e,11.2975,176.0971,218.0565,2.601327,0.2349155,0.76808243,228.4933,12/27.0/2020,2000,g 16.0,2.0
# From MPC 89012
170P/Christensen,e,10.1250,142.9216,225.6263,4.198301,0.1145760,0.30361792,263.1365,12/27.0/2020,2000,g 12.0,4.0
# From MPC102102
171P/Spahr,e,21.9340,101.6961,347.1011,3.555917,0.1469862,0.50159304,104.8809,12/27.0/2020,2000,g 13.5,4.0
# From MPEC 2020-W26
172P/Yeung,e,11.2304,30.8955,209.4074,4.211861,0.1140231,0.20578607,157.8752,12/27.0/2020,2000,g 13.0,4.0
# From MPEC 2020-W26
173P/Mueller,e,16.4962,100.4025,29.2749,5.703070,0.0723671,0.26065477,334.2749,12/27.0/2020,2000,g  7.5,4.0
# From MPC 92985
174P/Echeclus,e,4.3431,173.2398,163.0064,10.71168,0.0281137,0.45729546,58.3013,12/27.0/2020,2000,g  9.4,2.0
# From MPC114608
175P/Hergenrother,e,6.0802,123.5202,56.4438,3.436545,0.1547110,0.43312089,69.9982,12/27.0/2020,2000,g 14.0,4.0
# From MPC 89015
176P/LINEAR,e,0.2348,345.8890,35.0886,3.193321,0.1727191,0.19303705,239.6631,12/27.0/2020,2000,g 15.1,2.0
# From MPEC 2020-L06
177P/Barnard,e,31.3089,272.3041,60.1947,24.40182,0.0081766,0.95523532,42.7713,12/27.0/2020,2000,g 15.0,4.0
# From MPEC 2020-SI8
178P/Hug-Bell,e,11.0894,102.8749,297.7901,3.631402,0.1424271,0.48194105,23.2688,12/27.0/2020,2000,g 13.5,4.0
# From MPC 75723
179P/Jedicke,e,19.8990,115.5256,296.6703,5.938604,0.0681048,0.30620247,324.7485,12/27.0/2020,2000,g  2.5,8.0
# From MPC100284
180P/NEAT,e,16.8673,84.5631,94.8471,3.862160,0.1298550,0.35314257,239.5229,12/27.0/2020,2000,g 11.0,4.0
# From MPC 89012
181P/Shoemaker-Levy,e,17.4867,35.4121,336.2480,3.871708,0.1293749,0.70047591,311.1222,12/27.0/2020,2000,g 11.5,4.0
# From MPEC 2014-J10
182P/LONEOS,e,16.2255,72.6091,53.9764,2.954509,0.1940779,0.66257557,262.6869,12/27.0/2020,2000,g 18.0,4.0
# From MPC110085
183P/Korlevic-Juric,e,18.7095,4.9455,165.0933,4.528659,0.1022703,0.13858222,114.7227,12/27.0/2020,2000,g 12.5,2.0
# From MPEC 2020-W26
184P/Lovas,e,4.5732,173.2553,186.4375,3.792732,0.1334369,0.55091141,8.2478,12/27.0/2020,2000,g 13.5,4.0
# From MPC109593
185P/Petriew,e,14.0022,214.0959,181.8774,3.099185,0.1806479,0.69907611,192.2992,12/27.0/2020,2000,g 15.0,4.0
# From MPEC 2020-W26
186P/Garradd,e,28.7043,326.6577,282.5073,4.994458,0.0883022,0.12327909,54.4259,12/27.0/2020,2000,g  7.5,4.0
# From MPEC 2020-SI8
187P/LINEAR,e,13.6346,109.9230,132.0076,4.571198,0.1008461,0.15219809,96.3449,12/27.0/2020,2000,g  9.0,4.0
# From MPC106349
188P/LINEAR-Mueller,e,10.5224,358.9584,26.5710,4.375165,0.1076992,0.41554020,151.7179,12/27.0/2020,2000,g 11.5,4.0
# From MPC106349
189P/NEAT,e,20.0721,281.7375,16.2702,2.946990,0.1948211,0.58875172,241.2087,12/27.0/2020,2000,g 19.0,4.0
# From MPEC 2020-K19
190P/Mueller,e,2.1743,335.5790,50.2736,4.234910,0.1130936,0.52110572,194.9980,12/27.0/2020,2000,g 13.0,4.0
# From MPEC 2020-W26
191P/McNaught,e,8.8428,98.2333,283.9948,3.634680,0.1422345,0.38586581,348.1838,12/27.0/2020,2000,g 13.0,4.0
# From MPC 75724
192P/Shoemaker-Levy,e,24.5468,51.6309,312.9351,6.477586,0.0597839,0.77303491,285.5887,12/27.0/2020,2000,g 15.0,4.0
# From MPC 92277
193P/LINEAR-NEAT,e,10.6870,335.1819,8.2001,3.577780,0.1456410,0.39421505,324.8209,12/27.0/2020,2000,g 14.0,4.0
# From MPC 98566
194P/LINEAR,e,11.2516,351.2827,130.9905,3.982725,0.1240034,0.57988830,218.4237,12/27.0/2020,2000,g 16.0,4.0
# From MPC 75724
195P/Hill,e,36.3379,243.1114,249.3859,6.500906,0.0594625,0.31325302,260.3873,12/27.0/2020,2000,g  8.5,4.0
# From MPC 92985
196P/Tichy,e,19.2959,24.1867,12.2683,3.799599,0.1330753,0.42854368,270.5656,12/27.0/2020,2000,g 13.5,4.0
# From MPC 94676
197P/LINEAR,e,25.5411,66.3902,188.7436,2.867549,0.2029727,0.62973944,215.7838,12/27.0/2020,2000,g 16.5,2.0
# From NK 1596
198P/ODAS,e,1.3387,358.2532,69.2216,3.599583,0.1443197,0.44322142,107.4088,12/27.0/2020,2000,g  9.0,4.0
# From MPC 75725
199P/Shoemaker,e,24.9335,92.3907,191.6245,5.895784,0.0688481,0.50607609,294.3385,12/27.0/2020,2000,g 10.0,4.0
# From MPC118098
200P/Larsen,e,12.1022,234.7994,134.0485,4.939528,0.0897792,0.33241330,46.4219,12/27.0/2020,2000,g  9.0,4.0
# From MPC 93588
201P/LONEOS,e,5.7386,19.7527,41.5275,3.354490,0.1604221,0.63706777,335.8311,12/27.0/2020,2000,g 14.0,4.0
# From MPC103849
202P/Scotti,e,2.0525,179.3863,277.0390,4.028272,0.1219062,0.27426126,208.9096,12/27.0/2020,2000,g 13.5,4.0
# From MPEC 2020-UR0
203P/Korlevic,e,2.9732,290.3479,154.8396,4.671400,0.0976188,0.31508941,29.0063,12/27.0/2020,2000,g 14.5,2.0
# From MPC 98566
204P/LINEAR-NEAT,e,6.6269,108.7899,355.4701,3.611355,0.1436147,0.48636650,261.0419,12/27.0/2020,2000,g 14.0,4.0
# From MPC 98566
205P/Giacobini,e,15.3037,179.6027,154.2016,3.542397,0.1478285,0.56796356,303.4630,12/27.0/2020,2000,g 13.0,4.0
# From MPC 75725
206P/Barnard-Boattini,e,33.6332,202.3471,189.4655,3.487546,0.1513297,0.55133318,349.7871,12/27.0/2020,2000,g 19.0,4.0
# From MPC 75725
207P/NEAT,e,10.1649,198.8608,272.5956,3.866537,0.1296346,0.76003007,213.3120,12/27.0/2020,2000,g 16.0,4.0
# From MPEC 2020-W26
208P/McMillan,e,4.4099,36.3541,310.4184,4.046343,0.1210905,0.37359183,198.2932,12/27.0/2020,2000,g 12.5,4.0
# From MPC 90771
209P/LINEAR,e,21.2574,62.7698,152.4766,2.960100,0.1935283,0.67314876,109.0160,12/27.0/2020,2000,g 17.0,2.0
# From MPC105242
210P/Christensen,e,10.2620,93.8339,345.9043,3.165049,0.1750385,0.83319195,46.0500,12/27.0/2020,2000,g 13.5,4.0
# From MPC 96868
211P/Hill,e,18.9220,117.1396,4.1870,3.547262,0.1475245,0.34307045,264.6040,12/27.0/2020,2000,g 12.5,4.0
# From MPC104795
212P/NEAT,e,22.3952,98.4986,14.0986,3.882323,0.1288447,0.58939197,203.2764,12/27.0/2020,2000,g 17.0,2.0
# From MPC114608
213P/Van Ness,e,10.3828,311.3001,5.6224,3.348067,0.1608840,0.40818112,191.2390,12/27.0/2020,2000,g 10.5,4.0
# From MPC 92986
